{"type":"FeatureCollection","features":[{"type":"Feature","properties":{},"geometry":{"type":"Polygon","coordinates":[[[139.6419958,35.4379415],[139.6417413,35.4379123],[139.6416941,35.4381109],[139.6420269,35.4381417],[139.6426438,35.4383373],[139.6428534,35.4384033],[139.643022,35.4384564],[139.6433356,35.43856],[139.6439591,35.4388867],[139.6444174,35.4391419],[139.6448799,35.4394259],[139.6449082,35.4394403],[139.6451214,35.439549],[139.6453377,35.4396592],[139.6460383,35.4399898],[139.6464173,35.4401517],[139.6474072,35.4406229],[139.6481498,35.441043],[139.648458,35.4411839],[139.6492615,35.4415245],[139.6501688,35.4418424],[139.6508176,35.4420815],[139.651935,35.4424488],[139.6521646,35.4425047],[139.6527843,35.4427767],[139.6533941,35.4431339],[139.6539759,35.4429424],[139.6533836,35.4427306],[139.6531391,35.4426299],[139.6524071,35.4423429],[139.651519,35.4420476],[139.6503954,35.441696],[139.6494926,35.4413331],[139.6487992,35.441037],[139.6484034,35.4408663],[139.6479087,35.4405737],[139.647107,35.4401828],[139.6464807,35.4398845],[139.6456573,35.4395064],[139.6453654,35.4393722],[139.6450723,35.4392194],[139.6443441,35.4387993],[139.6439176,35.4385742],[139.6432318,35.4383337],[139.6431361,35.4383001],[139.6429829,35.4382464],[139.6423314,35.438027],[139.6419958,35.4379415]]]}},{"type":"Feature","properties":{},"geometry":{"type":"Polygon","coordinates":[[[139.6508725,35.4397491],[139.6509212,35.4396313],[139.6509657,35.4396435],[139.6509857,35.439649],[139.650937,35.4397668],[139.6509169,35.4397613],[139.6508725,35.4397491]]]}},{"type":"Feature","properties":{},"geometry":{"type":"Polygon","coordinates":[[[139.6510783,35.4390284],[139.6510742,35.4390247],[139.6510716,35.4390201],[139.651071,35.4390152],[139.6511089,35.4390216],[139.6511059,35.4390259],[139.6511013,35.4390293],[139.6510958,35.4390313],[139.6510897,35.4390319],[139.6510837,35.4390308],[139.6510783,35.4390284]]]}},{"type":"Feature","properties":{},"geometry":{"type":"Polygon","coordinates":[[[139.6510524,35.4391073],[139.6510474,35.4391026],[139.6510445,35.4390969],[139.6510439,35.4390907],[139.6510457,35.4390847],[139.6510497,35.4390794],[139.6510554,35.4390754],[139.6510625,35.439073],[139.65107,35.4390725],[139.6510774,35.439074],[139.6510839,35.4390772],[139.6510888,35.4390819],[139.6510917,35.4390877],[139.6510923,35.4390938],[139.6510906,35.4390998],[139.6510866,35.4391051],[139.6510808,35.4391091],[139.6510738,35.4391115],[139.6510662,35.439112],[139.6510588,35.4391106],[139.6510524,35.4391073]]]}},{"type":"Feature","properties":{},"geometry":{"type":"Polygon","coordinates":[[[139.6511552,35.4392829],[139.6511752,35.4392177],[139.6512547,35.4392339],[139.6512347,35.4392991],[139.6511552,35.4392829]]]}},{"type":"Feature","properties":{},"geometry":{"type":"Polygon","coordinates":[[[139.6520584,35.444375],[139.652056,35.4443988],[139.6521186,35.4444822],[139.652161,35.4445078],[139.6521777,35.4444799],[139.6521844,35.4444537],[139.6521759,35.444427],[139.6521653,35.4444124],[139.6522248,35.4443765],[139.6522436,35.4443773],[139.6522447,35.4443566],[139.652221,35.4443565],[139.6522194,35.4443686],[139.6521547,35.4444032],[139.6521138,35.4443741],[139.6520853,35.4443693],[139.6520644,35.4443674],[139.6520584,35.444375]]]}}]}